[
  {
    "name": "STARLINK-34098",
    "noradId": "64080",
    "line1": "1 64080U 25107S   26181.61834064  .00016025  00000+0  59039-3 0  9995",
    "line2": "2 64080  43.0018 283.5952 0001365 322.0700  38.0055 15.27591349 63397"
  },
  {
    "name": "STARLINK-34180",
    "noradId": "64081",
    "line1": "1 64081U 25107T   26181.64018922  .00023868  00000+0  87435-3 0  9990",
    "line2": "2 64081  43.0003 283.7629 0001572 272.7561  87.3111 15.27568507 63391"
  },
  {
    "name": "STARLINK-34171",
    "noradId": "64082",
    "line1": "1 64082U 25107U   26181.73754951  .00015171  00000+0  55960-3 0  9996",
    "line2": "2 64082  42.9966 282.7704 0000578 289.2268  70.8521 15.27584403 63411"
  },
  {
    "name": "STARLINK-34126",
    "noradId": "64083",
    "line1": "1 64083U 25107V   26181.65046315  .00021923  00000+0  80435-3 0  9993",
    "line2": "2 64083  42.9979 283.8394 0001014 281.2533  78.8205 15.27558363 62306"
  },
  {
    "name": "STARLINK-34157",
    "noradId": "64084",
    "line1": "1 64084U 25107W   26181.68114985  .00015485  00000+0  57119-3 0  9995",
    "line2": "2 64084  43.0051 283.2017 0002253 249.7435 110.3175 15.27572377 63380"
  },
  {
    "name": "STARLINK-34132",
    "noradId": "64086",
    "line1": "1 64086U 25107Y   26181.71200391 -.00023160  00000+0 -83606-3 0  9999",
    "line2": "2 64086  43.0039 283.4413 0000989 334.0361  26.0441 15.27527381 63373"
  },
  {
    "name": "STARLINK-34178",
    "noradId": "64096",
    "line1": "1 64096U 25110A   26181.37820528  .00016714  00000+0  54875-3 0  9997",
    "line2": "2 64096  53.1595 223.4741 0000966  84.7446 275.3666 15.31722880 63137"
  },
  {
    "name": "STARLINK-34174",
    "noradId": "64097",
    "line1": "1 64097U 25110B   26181.47719762  .00009301  00000+0  28610-3 0  9998",
    "line2": "2 64097  53.1562 221.2636 0001145 100.6354 259.4778 15.34396612 63171"
  },
  {
    "name": "STARLINK-34146",
    "noradId": "64098",
    "line1": "1 64098U 25110C   26181.38681427  .00015754  00000+0  47636-3 0  9993",
    "line2": "2 64098  53.1574 221.4067 0001016 104.5728 255.5388 15.34403457 63158"
  },
  {
    "name": "STARLINK-34074",
    "noradId": "64099",
    "line1": "1 64099U 25110D   26181.39079674  .00010010  00000+0  34959-3 0  9994",
    "line2": "2 64099  53.1569 223.5522 0001145 118.7742 241.3374 15.30204102 63136"
  },
  {
    "name": "STARLINK-34082",
    "noradId": "64100",
    "line1": "1 64100U 25110E   26181.38868556  .00014685  00000+0  50685-3 0  9997",
    "line2": "2 64100  53.1581 223.5443 0000979 120.2915 239.8182 15.30206611 63135"
  },
  {
    "name": "STARLINK-34072",
    "noradId": "64101",
    "line1": "1 64101U 25110F   26181.38278113  .00014277  00000+0  47086-3 0  9990",
    "line2": "2 64101  53.1578 222.8037 0001132  43.6950 316.4141 15.31706274 63141"
  },
  {
    "name": "STARLINK-34104",
    "noradId": "64102",
    "line1": "1 64102U 25110G   26181.49192543  .00019217  00000+0  57837-3 0  9999",
    "line2": "2 64102  53.1572 221.3517 0000990  90.3384 269.7732 15.34402916 63172"
  },
  {
    "name": "STARLINK-34179",
    "noradId": "64103",
    "line1": "1 64103U 25110H   26181.39396966  .00015520  00000+0  53466-3 0  9991",
    "line2": "2 64103  53.1569 223.5757 0001181  81.8569 278.2566 15.30223136 63139"
  },
  {
    "name": "STARLINK-34176",
    "noradId": "64104",
    "line1": "1 64104U 25110J   26181.38763202  .00011555  00000+0  40161-3 0  9994",
    "line2": "2 64104  53.1575 223.5386 0000977  85.3181 274.7932 15.30203784 63131"
  },
  {
    "name": "STARLINK-33949",
    "noradId": "64105",
    "line1": "1 64105U 25110K   26181.38777981  .00007806  00000+0  26298-3 0  9993",
    "line2": "2 64105  53.1580 222.8266 0001059  93.5257 266.5865 15.31708521 63149"
  },
  {
    "name": "STARLINK-33970",
    "noradId": "64106",
    "line1": "1 64106U 25110L   26181.49823808  .00008167  00000+0  25288-3 0  9995",
    "line2": "2 64106  53.1568 221.3883 0001010 101.3633 258.7483 15.34363094 63175"
  },
  {
    "name": "STARLINK-33912",
    "noradId": "64107",
    "line1": "1 64107U 25110M   26181.50895900  .00014785  00000+0  48737-3 0  9997",
    "line2": "2 64107  53.1574 222.1627 0001333  62.6721 297.4416 15.31693504 63167"
  },
  {
    "name": "STARLINK-34156",
    "noradId": "64108",
    "line1": "1 64108U 25110N   26181.43869384  .00024477  00000+0  79757-3 0  9992",
    "line2": "2 64108  53.1572 222.4340 0000882  84.8714 275.2388 15.31714768 63154"
  },
  {
    "name": "STARLINK-34124",
    "noradId": "64109",
    "line1": "1 64109U 25110P   26181.49927727  .00025127  00000+0  81829-3 0  9991",
    "line2": "2 64109  53.1582 222.1013 0001233  67.7834 292.3298 15.31717616 63160"
  },
  {
    "name": "STARLINK-34145",
    "noradId": "64110",
    "line1": "1 64110U 25110Q   26181.39314090  .00017810  00000+0  53673-3 0  9991",
    "line2": "2 64110  53.1566 221.4400 0001160 100.4225 259.6908 15.34415645 63168"
  },
  {
    "name": "STARLINK-34148",
    "noradId": "64111",
    "line1": "1 64111U 25110R   26181.48994142  .00020975  00000+0  68552-3 0  9992",
    "line2": "2 64111  53.1557 222.0424 0001071 102.0220 258.0901 15.31711246 63165"
  },
  {
    "name": "STARLINK-34136",
    "noradId": "64112",
    "line1": "1 64112U 25110S   26181.49460987  .00022176  00000+0  72399-3 0  9998",
    "line2": "2 64112  53.1566 222.0729 0001009  85.1957 274.9160 15.31711676 63164"
  },
  {
    "name": "STARLINK-33839",
    "noradId": "64113",
    "line1": "1 64113U 25110T   26181.43902605  .00014922  00000+0  49153-3 0  9993",
    "line2": "2 64113  53.1576 222.4339 0000932  79.2702 280.8404 15.31708712 63156"
  },
  {
    "name": "STARLINK-34064",
    "noradId": "64114",
    "line1": "1 64114U 25110U   26181.39244663  .00015341  00000+0  50488-3 0  9991",
    "line2": "2 64114  53.1570 222.8522 0001016 103.3261 256.7854 15.31713775 63147"
  },
  {
    "name": "STARLINK-34067",
    "noradId": "64115",
    "line1": "1 64115U 25110V   26181.49674457  .00038985  00000+0  11547-2 0  9992",
    "line2": "2 64115  53.1586 221.3874 0002275  36.9324 323.1835 15.34516798 63178"
  },
  {
    "name": "STARLINK-34080",
    "noradId": "64116",
    "line1": "1 64116U 25110W   26181.35010536  .00010526  00000+0  35045-3 0  9991",
    "line2": "2 64116  53.1552 222.5918 0001006  95.1021 265.0095 15.31703727 63131"
  },
  {
    "name": "STARLINK-34122",
    "noradId": "64117",
    "line1": "1 64117U 25110X   26181.35477186  .00011757  00000+0  38986-3 0  9994",
    "line2": "2 64117  53.1559 222.6181 0001024 108.7368 251.3744 15.31712221 63135"
  },
  {
    "name": "STARLINK-33964",
    "noradId": "64118",
    "line1": "1 64118U 25110Y   26181.38310996  .00005550  00000+0  19044-3 0  9991",
    "line2": "2 64118  53.1579 222.7938 0001084 101.2180 258.8944 15.31708752 63144"
  }
]