OBJECT_NAME,OBJECT_ID,EPOCH,MEAN_MOTION,ECCENTRICITY,INCLINATION,RA_OF_ASC_NODE,ARG_OF_PERICENTER,MEAN_ANOMALY,EPHEMERIS_TYPE,CLASSIFICATION_TYPE,NORAD_CAT_ID,ELEMENT_SET_NO,REV_AT_EPOCH,BSTAR,MEAN_MOTION_DOT,MEAN_MOTION_DDOT
STARLINK-34098,2025-107S,2026-06-30T14:50:24.631296,15.27591349,.0001365,43.0018,283.5952,322.0700,38.0055,0,U,64080,999,6339,.5903921E-3,.16025E-3,0
STARLINK-34180,2025-107T,2026-06-30T15:21:52.349472,15.27568507,.00015719,43.0003,283.7629,272.7561,87.3111,0,U,64081,999,6339,.8743482E-3,.23868E-3,0
STARLINK-34171,2025-107U,2026-06-30T17:42:04.278528,15.27584403,.00005784,42.9966,282.7704,289.2268,70.8521,0,U,64082,999,6341,.5595998E-3,.15171E-3,0
STARLINK-34126,2025-107V,2026-06-30T15:36:40.016160,15.27558363,.00010135,42.9979,283.8394,281.2533,78.8205,0,U,64083,999,6230,.80435268E-3,.21923E-3,0
STARLINK-34157,2025-107W,2026-06-30T16:20:51.347040,15.27572377,.00022533,43.0051,283.2017,249.7435,110.3175,0,U,64084,999,6338,.57118639E-3,.15485E-3,0
STARLINK-34132,2025-107Y,2026-06-30T17:05:17.138688,15.27527381,.00009888,43.0039,283.4413,334.0361,26.0441,0,U,64086,999,6337,-.8360625E-3,-.2316E-3,0
STARLINK-34178,2025-110A,2026-06-30T09:04:36.936192,15.31722880,.00009665,53.1595,223.4741,84.7446,275.3666,0,U,64096,999,6313,.54875294E-3,.16714E-3,0
STARLINK-34174,2025-110B,2026-06-30T11:27:09.874368,15.34396612,.00011459,53.1562,221.2636,100.6354,259.4778,0,U,64097,999,6317,.28610195E-3,.9301E-4,0
STARLINK-34146,2025-110C,2026-06-30T09:17:00.752928,15.34403457,.00010167,53.1574,221.4067,104.5728,255.5388,0,U,64098,999,6315,.47636318E-3,.15754E-3,0
STARLINK-34074,2025-110D,2026-06-30T09:22:44.838336,15.30204102,.00011458,53.1569,223.5522,118.7742,241.3374,0,U,64099,999,6313,.34958952E-3,.1001E-3,0
STARLINK-34082,2025-110E,2026-06-30T09:19:42.432384,15.30206611,.00009798,53.1581,223.5443,120.2915,239.8182,0,U,64100,999,6313,.50685283E-3,.14685E-3,0
STARLINK-34072,2025-110F,2026-06-30T09:11:12.289632,15.31706274,.00011321,53.1578,222.8037,43.6950,316.4141,0,U,64101,999,6314,.47085997E-3,.14277E-3,0
STARLINK-34104,2025-110G,2026-06-30T11:48:22.357152,15.34402916,.00009907,53.1572,221.3517,90.3384,269.7732,0,U,64102,999,6317,.57836845E-3,.19217E-3,0
STARLINK-34179,2025-110H,2026-06-30T09:27:18.978624,15.30223136,.00011816,53.1569,223.5757,81.8569,278.2566,0,U,64103,999,6313,.53466363E-3,.1552E-3,0
STARLINK-34176,2025-110J,2026-06-30T09:18:11.406528,15.30203784,.00009771,53.1575,223.5386,85.3181,274.7932,0,U,64104,999,6313,.40160915E-3,.11555E-3,0
STARLINK-33949,2025-110K,2026-06-30T09:18:24.175584,15.31708521,.00010594,53.1580,222.8266,93.5257,266.5865,0,U,64105,999,6314,.26298461E-3,.7806E-4,0
STARLINK-33970,2025-110L,2026-06-30T11:57:27.770112,15.34363094,.00010101,53.1568,221.3883,101.3633,258.7483,0,U,64106,999,6317,.25287616E-3,.8167E-4,0
STARLINK-33912,2025-110M,2026-06-30T12:12:54.057600,15.31693504,.00013332,53.1574,222.1627,62.6721,297.4416,0,U,64107,999,6316,.48736632E-3,.14785E-3,0
STARLINK-34156,2025-110N,2026-06-30T10:31:43.147776,15.31714768,.00008828,53.1572,222.4340,84.8714,275.2388,0,U,64108,999,6315,.79757252E-3,.24477E-3,0
STARLINK-34124,2025-110P,2026-06-30T11:58:57.556128,15.31717616,.00012331,53.1582,222.1013,67.7834,292.3298,0,U,64109,999,6316,.81828683E-3,.25127E-3,0
STARLINK-34145,2025-110Q,2026-06-30T09:26:07.373760,15.34415645,.00011601,53.1566,221.4400,100.4225,259.6908,0,U,64110,999,6316,.53673124E-3,.1781E-3,0
STARLINK-34148,2025-110R,2026-06-30T11:45:30.938688,15.31711246,.00010715,53.1557,222.0424,102.0220,258.0901,0,U,64111,999,6316,.68551523E-3,.20975E-3,0
STARLINK-34136,2025-110S,2026-06-30T11:52:14.292768,15.31711676,.00010097,53.1566,222.0729,85.1957,274.9160,0,U,64112,999,6316,.72399455E-3,.22176E-3,0
STARLINK-33839,2025-110T,2026-06-30T10:32:11.850720,15.31708712,.00009324,53.1576,222.4339,79.2702,280.8404,0,U,64113,999,6315,.49152913E-3,.14922E-3,0
STARLINK-34064,2025-110U,2026-06-30T09:25:07.388832,15.31713775,.00010162,53.1570,222.8522,103.3261,256.7854,0,U,64114,999,6314,.50487936E-3,.15341E-3,0
STARLINK-34067,2025-110V,2026-06-30T11:55:18.730848,15.34516798,.00022752,53.1586,221.3874,36.9324,323.1835,0,U,64115,999,6317,.1154654E-2,.38985E-3,0
STARLINK-34080,2025-110W,2026-06-30T08:24:09.103104,15.31703727,.00010062,53.1552,222.5918,95.1021,265.0095,0,U,64116,999,6313,.3504467E-3,.10526E-3,0
STARLINK-34122,2025-110X,2026-06-30T08:30:52.288704,15.31712221,.00010242,53.1559,222.6181,108.7368,251.3744,0,U,64117,999,6313,.38986174E-3,.11757E-3,0
STARLINK-33964,2025-110Y,2026-06-30T09:11:40.700544,15.31708752,.00010841,53.1579,222.7938,101.2180,258.8944,0,U,64118,999,6314,.19043738E-3,.555E-4,0
